[{"spaceTrack":{"CCSDS_OMM_VERS":"2.0","COMMENT":"GENERATED VIA SPACE-TRACK.ORG API","CREATION_DATE":"2021-10-26T14:26:12","ORIGINATOR":"18 SPCS","OBJECT_NAME":"STARLINK-2060","OBJECT_ID":"2021-012BB","CENTER_NAME":"EARTH","REF_FRAME":"TEME","TIME_SYSTEM":"UTC","MEAN_ELEMENT_THEORY":"SGP4","EPOCH":"2021-10-26T14:00:04.000032","MEAN_MOTION":15.06409675,"ECCENTRICITY":0.0002151,"INCLINATION":53.0504,"RA_OF_ASC_NODE":297.3271,"ARG_OF_PERICENTER":40.638,"MEAN_ANOMALY":209.4004,"EPHEMERIS_TYPE":0,"CLASSIFICATION_TYPE":"U","NORAD_CAT_ID":47669,"ELEMENT_SET_NO":999,"REV_AT_EPOCH":4037,"BSTAR":-0.00116,"MEAN_MOTION_DOT":-0.00017523,"MEAN_MOTION_DDOT":0,"SEMIMAJOR_AXIS":6925.319,"PERIOD":95.592,"APOAPSIS":548.674,"PERIAPSIS":545.694,"OBJECT_TYPE":"PAYLOAD","RCS_SIZE":"MEDIUM","COUNTRY_CODE":"US","LAUNCH_DATE":"2021-02-16","SITE":"AFETR","DECAY_DATE":null,"DECAYED":0,"FILE":3184560,"GP_ID":188169208,"TLE_LINE0":"0 STARLINK-2060","TLE_LINE1":"1 47669U 21012BB  21299.58337963 -.00017523  00000-0 -11600-2 0  9995","TLE_LINE2":"2 47669  53.0504 297.3271 0002151  40.6380 209.4004 15.06409675 40378"},"height_km":565.0538218389693,"latitude":-48.28790105829177,"launch":"600f9a5e8f798e2a4d5f979c","longitude":-94.95190447897313,"velocity_kms":7.577759917900423,"version":"v1.0","id":"60354b0774350a0006fbc4fd"},{"spaceTrack":{"CCSDS_OMM_VERS":"2.0","COMMENT":"GENERATED VIA SPACE-TRACK.ORG API","CREATION_DATE":"2021-10-26T06:26:11","ORIGINATOR":"18 SPCS","OBJECT_NAME":"STARLINK-2036","OBJECT_ID":"2021-012AJ","CENTER_NAME":"EARTH","REF_FRAME":"TEME","TIME_SYSTEM":"UTC","MEAN_ELEMENT_THEORY":"SGP4","EPOCH":"2021-10-26T02:34:42.708000","MEAN_MOTION":15.06402187,"ECCENTRICITY":0.0001013,"INCLINATION":53.0569,"RA_OF_ASC_NODE":34.4626,"ARG_OF_PERICENTER":94.0968,"MEAN_ANOMALY":266.0137,"EPHEMERIS_TYPE":0,"CLASSIFICATION_TYPE":"U","NORAD_CAT_ID":47652,"ELEMENT_SET_NO":999,"REV_AT_EPOCH":3897,"BSTAR":0.000044975,"MEAN_MOTION_DOT":0.00000389,"MEAN_MOTION_DDOT":0,"SEMIMAJOR_AXIS":6925.342,"PERIOD":95.592,"APOAPSIS":547.908,"PERIAPSIS":546.505,"OBJECT_TYPE":"PAYLOAD","RCS_SIZE":"LARGE","COUNTRY_CODE":"US","LAUNCH_DATE":"2021-02-16","SITE":"AFETR","DECAY_DATE":null,"DECAYED":0,"FILE":3183948,"GP_ID":188156038,"TLE_LINE0":"0 STARLINK-2036","TLE_LINE1":"1 47652U 21012AJ  21299.10743875  .00000389  00000-0  44975-4 0  9991","TLE_LINE2":"2 47652  53.0569  34.4626 0001013  94.0968 266.0137 15.06402187 38976"},"height_km":551.2301915495227,"latitude":44.61411491520387,"launch":"600f9a5e8f798e2a4d5f979c","longitude":170.5355513786707,"velocity_kms":7.5920811008806615,"version":"v1.0","id":"60354b0774350a0006fbc4f9"},{"spaceTrack":{"CCSDS_OMM_VERS":"2.0","COMMENT":"GENERATED VIA SPACE-TRACK.ORG API","CREATION_DATE":"2021-10-26T06:26:11","ORIGINATOR":"18 SPCS","OBJECT_NAME":"STARLINK-2042","OBJECT_ID":"2021-012AQ","CENTER_NAME":"EARTH","REF_FRAME":"TEME","TIME_SYSTEM":"UTC","MEAN_ELEMENT_THEORY":"SGP4","EPOCH":"2021-10-25T18:52:55.783200","MEAN_MOTION":15.06406088,"ECCENTRICITY":0.0001006,"INCLINATION":53.0552,"RA_OF_ASC_NODE":35.9092,"ARG_OF_PERICENTER":92.6515,"MEAN_ANOMALY":267.4589,"EPHEMERIS_TYPE":0,"CLASSIFICATION_TYPE":"U","NORAD_CAT_ID":47658,"ELEMENT_SET_NO":999,"REV_AT_EPOCH":3893,"BSTAR":0.00016675,"MEAN_MOTION_DOT":0.00002204,"MEAN_MOTION_DDOT":0,"SEMIMAJOR_AXIS":6925.33,"PERIOD":95.592,"APOAPSIS":547.892,"PERIAPSIS":546.498,"OBJECT_TYPE":"PAYLOAD","RCS_SIZE":"LARGE","COUNTRY_CODE":"US","LAUNCH_DATE":"2021-02-16","SITE":"AFETR","DECAY_DATE":null,"DECAYED":0,"FILE":3183952,"GP_ID":188156096,"TLE_LINE0":"0 STARLINK-2042","TLE_LINE1":"1 47658U 21012AQ  21298.78675675  .00002204  00000-0  16675-3 0  9995","TLE_LINE2":"2 47658  53.0552  35.9092 0001006  92.6515 267.4589 15.06406088 38937"},"height_km":547.9860003789736,"latitude":0.9606531142575596,"launch":"600f9a5e8f798e2a4d5f979c","longitude":123.70947573056371,"velocity_kms":7.589237217028597,"version":"v1.0","id":"60354b0774350a0006fbc4fe"},{"spaceTrack":{"CCSDS_OMM_VERS":"2.0","COMMENT":"GENERATED VIA SPACE-TRACK.ORG API","CREATION_DATE":"2021-10-26T14:46:11","ORIGINATOR":"18 SPCS","OBJECT_NAME":"STARLINK-2033","OBJECT_ID":"2021-012AG","CENTER_NAME":"EARTH","REF_FRAME":"TEME","TIME_SYSTEM":"UTC","MEAN_ELEMENT_THEORY":"SGP4","EPOCH":"2021-10-26T04:18:13.006080","MEAN_MOTION":15.06393488,"ECCENTRICITY":0.000098,"INCLINATION":53.0561,"RA_OF_ASC_NODE":14.1498,"ARG_OF_PERICENTER":90.4913,"MEAN_ANOMALY":269.6188,"EPHEMERIS_TYPE":0,"CLASSIFICATION_TYPE":"U","NORAD_CAT_ID":47650,"ELEMENT_SET_NO":999,"REV_AT_EPOCH":3926,"BSTAR":0.000051644,"MEAN_MOTION_DOT":0.00000488,"MEAN_MOTION_DDOT":0,"SEMIMAJOR_AXIS":6925.369,"PERIOD":95.593,"APOAPSIS":547.912,"PERIAPSIS":546.555,"OBJECT_TYPE":"PAYLOAD","RCS_SIZE":"LARGE","COUNTRY_CODE":"US","LAUNCH_DATE":"2021-02-16","SITE":"AFETR","DECAY_DATE":null,"DECAYED":0,"FILE":3184832,"GP_ID":188175445,"TLE_LINE0":"0 STARLINK-2033","TLE_LINE1":"1 47650U 21012AG  21299.17931720  .00000488  00000-0  51644-4 0  9995","TLE_LINE2":"2 47650  53.0561  14.1498 0000980  90.4913 269.6188 15.06393488 39261"},"height_km":547.8136401006941,"latitude":24.522986771086014,"launch":"600f9a5e8f798e2a4d5f979c","longitude":122.94499471317357,"velocity_kms":7.591679481930669,"version":"v1.0","id":"60354b0774350a0006fbc4fa"},{"spaceTrack":{"CCSDS_OMM_VERS":"2.0","COMMENT":"GENERATED VIA SPACE-TRACK.ORG API","CREATION_DATE":"2021-10-26T14:26:12","ORIGINATOR":"18 SPCS","OBJECT_NAME":"STARLINK-2056","OBJECT_ID":"2021-012AX","CENTER_NAME":"EARTH","REF_FRAME":"TEME","TIME_SYSTEM":"UTC","MEAN_ELEMENT_THEORY":"SGP4","EPOCH":"2021-10-26T05:45:04.876128","MEAN_MOTION":15.06406626,"ECCENTRICITY":0.000477,"INCLINATION":53.0541,"RA_OF_ASC_NODE":8.8721,"ARG_OF_PERICENTER":327.0477,"MEAN_ANOMALY":33.0214,"EPHEMERIS_TYPE":0,"CLASSIFICATION_TYPE":"U","NORAD_CAT_ID":47665,"ELEMENT_SET_NO":999,"REV_AT_EPOCH":3934,"BSTAR":-0.000007425,"MEAN_MOTION_DOT":-0.00000394,"MEAN_MOTION_DDOT":0,"SEMIMAJOR_AXIS":6925.328,"PERIOD":95.592,"APOAPSIS":550.497,"PERIAPSIS":543.89,"OBJECT_TYPE":"PAYLOAD","RCS_SIZE":"LARGE","COUNTRY_CODE":"US","LAUNCH_DATE":"2021-02-16","SITE":"AFETR","DECAY_DATE":null,"DECAYED":0,"FILE":3184557,"GP_ID":188168660,"TLE_LINE0":"0 STARLINK-2056","TLE_LINE1":"1 47665U 21012AX  21299.23963977 -.00000394  00000-0 -74250-5 0  9994","TLE_LINE2":"2 47665  53.0541   8.8721 0004770 327.0477  33.0214 15.06406626 39340"},"height_km":552.4386680942507,"latitude":46.02189857632874,"launch":"600f9a5e8f798e2a4d5f979c","longitude":148.80433574777408,"velocity_kms":7.591068063870778,"version":"v1.0","id":"60354b0774350a0006fbc4ff"},{"spaceTrack":{"CCSDS_OMM_VERS":"2.0","COMMENT":"GENERATED VIA SPACE-TRACK.ORG API","CREATION_DATE":"2021-10-26T14:26:12","ORIGINATOR":"18 SPCS","OBJECT_NAME":"STARLINK-2053","OBJECT_ID":"2021-012AV","CENTER_NAME":"EARTH","REF_FRAME":"TEME","TIME_SYSTEM":"UTC","MEAN_ELEMENT_THEORY":"SGP4","EPOCH":"2021-10-26T14:00:04.000032","MEAN_MOTION":15.14244861,"ECCENTRICITY":0.0001616,"INCLINATION":53.039,"RA_OF_ASC_NODE":292.4103,"ARG_OF_PERICENTER":43.6538,"MEAN_ANOMALY":25.4326,"EPHEMERIS_TYPE":0,"CLASSIFICATION_TYPE":"U","NORAD_CAT_ID":47663,"ELEMENT_SET_NO":999,"REV_AT_EPOCH":4044,"BSTAR":-0.062103,"MEAN_MOTION_DOT":-0.0106462,"MEAN_MOTION_DDOT":0,"SEMIMAJOR_AXIS":6901.409,"PERIOD":95.097,"APOAPSIS":524.389,"PERIAPSIS":522.159,"OBJECT_TYPE":"PAYLOAD","RCS_SIZE":"LARGE","COUNTRY_CODE":"US","LAUNCH_DATE":"2021-02-16","SITE":"AFETR","DECAY_DATE":null,"DECAYED":0,"FILE":3184557,"GP_ID":188169169,"TLE_LINE0":"0 STARLINK-2053","TLE_LINE1":"1 47663U 21012AV  21299.58337963 -.01064620  00000-0 -62103-1 0  9993","TLE_LINE2":"2 47663  53.0390 292.4103 0001616  43.6538  25.4326 15.14244861 40442"},"height_km":528.238373431107,"latitude":48.64163669493709,"launch":"600f9a5e8f798e2a4d5f979c","longitude":81.28711538468875,"velocity_kms":7.605377564194822,"version":"v1.0","id":"60354b0774350a0006fbc500"},{"spaceTrack":{"CCSDS_OMM_VERS":"2.0","COMMENT":"GENERATED VIA SPACE-TRACK.ORG API","CREATION_DATE":"2021-10-25T22:26:12","ORIGINATOR":"18 SPCS","OBJECT_NAME":"STARLINK-2067","OBJECT_ID":"2021-012BG","CENTER_NAME":"EARTH","REF_FRAME":"TEME","TIME_SYSTEM":"UTC","MEAN_ELEMENT_THEORY":"SGP4","EPOCH":"2021-10-25T13:47:45.130560","MEAN_MOTION":15.06409867,"ECCENTRICITY":0.0001071,"INCLINATION":53.0561,"RA_OF_ASC_NODE":16.8459,"ARG_OF_PERICENTER":87.6132,"MEAN_ANOMALY":272.4979,"EPHEMERIS_TYPE":0,"CLASSIFICATION_TYPE":"U","NORAD_CAT_ID":47674,"ELEMENT_SET_NO":999,"REV_AT_EPOCH":3917,"BSTAR":0.00012978,"MEAN_MOTION_DOT":0.00001653,"MEAN_MOTION_DDOT":0,"SEMIMAJOR_AXIS":6925.318,"PERIOD":95.592,"APOAPSIS":547.925,"PERIAPSIS":546.442,"OBJECT_TYPE":"PAYLOAD","RCS_SIZE":"LARGE","COUNTRY_CODE":"US","LAUNCH_DATE":"2021-02-16","SITE":"AFETR","DECAY_DATE":null,"DECAYED":0,"FILE":3183545,"GP_ID":188147684,"TLE_LINE0":"0 STARLINK-2067","TLE_LINE1":"1 47674U 21012BG  21298.57482790  .00001653  00000-0  12978-3 0  9993","TLE_LINE2":"2 47674  53.0561  16.8459 0001071  87.6132 272.4979 15.06409867 39175"},"height_km":552.1537753987977,"latitude":49.34962156710332,"launch":"600f9a5e8f798e2a4d5f979c","longitude":163.55297956919821,"velocity_kms":7.592119141251937,"version":"v1.0","id":"60354b0774350a0006fbc503"}]